[
  {
    "name": "United States",
    "dialCode": "+1",
    "flag": "ğŸ‡ºğŸ‡¸",
    "code": "US"
  },
  {
    "name": "United Kingdom",
    "dialCode": "+44",
    "flag": "ğŸ‡¬ğŸ‡§",
    "code": "GB"
  },
  {
    "name": "India",
    "dialCode": "+91",
    "flag": "ğŸ‡®ğŸ‡³",
    "code": "IN"
  },
  {
    "name": "Argentina",
    "dialCode": "+54",
    "flag": "ğŸ‡¦ğŸ‡·",
    "code": "AR"
  },
  {
    "name": "Australia",
    "dialCode": "+61",
    "flag": "ğŸ‡¦ğŸ‡º",
    "code": "AU"
  },
  {
    "name": "Brazil",
    "dialCode": "+55",
    "flag": "ğŸ‡§ğŸ‡·",
    "code": "BR"
  },
  {
    "name": "Canada",
    "dialCode": "+1",
    "flag": "ğŸ‡¨ğŸ‡¦",
    "code": "CA"
  },
  {
    "name": "Colombia",
    "dialCode": "+57",
    "flag": "ğŸ‡¨ğŸ‡´",
    "code": "CO"
  },
  {
    "name": "France",
    "dialCode": "+33",
    "flag": "ğŸ‡«ğŸ‡·",
    "code": "FR"
  },
  {
    "name": "Germany",
    "dialCode": "+49",
    "flag": "ğŸ‡©ğŸ‡ª",
    "code": "DE"
  },
  {
    "name": "Ireland",
    "dialCode": "+353",
    "flag": "ğŸ‡®ğŸ‡ª",
    "code": "IE"
  },
  {
    "name": "Italy",
    "dialCode": "+39",
    "flag": "ğŸ‡®ğŸ‡¹",
    "code": "IT"
  },
  {
    "name": "Japan",
    "dialCode": "+81",
    "flag": "ğŸ‡¯ğŸ‡µ",
    "code": "JP"
  },
  {
    "name": "Malaysia",
    "dialCode": "+60",
    "flag": "ğŸ‡²ğŸ‡¾",
    "code": "MY"
  },
  {
    "name": "Mexico",
    "dialCode": "+52",
    "flag": "ğŸ‡²ğŸ‡½",
    "code": "MX"
  },
  {
    "name": "Russia",
    "dialCode": "+7",
    "flag": "ğŸ‡·ğŸ‡º",
    "code": "RU"
  },
  {
    "name": "Saint Helena, Ascension and Tristan da Cunha",
    "dialCode": "+290",
    "flag": "ğŸ‡¸ğŸ‡­",
    "code": "SH"
  },
  {
    "name": "Saudi Arabia",
    "dialCode": "+966",
    "flag": "ğŸ‡¸ğŸ‡¦",
    "code": "SA"
  },
  {
    "name": "Scotland, United Kingdom",
    "dialCode": "+44",
    "flag": "ğŸ‡¬ğŸ‡§",
    "code": "GB"
  },
  {
    "name": "Singapore",
    "dialCode": "+65",
    "flag": "ğŸ‡¸ğŸ‡¬",
    "code": "SG"
  },
  {
    "name": "South Africa",
    "dialCode": "+27",
    "flag": "ğŸ‡¿ğŸ‡¦",
    "code": "ZA"
  },
  {
    "name": "South Korea",
    "dialCode": "+82",
    "flag": "ğŸ‡°ğŸ‡·",
    "code": "KR"
  },
  {
    "name": "St. Helena, California, United States",
    "dialCode": "+1",
    "flag": "ğŸ‡ºğŸ‡¸",
    "code": "US"
  },
  {
    "name": "United Arab Emirates",
    "dialCode": "+971",
    "flag": "ğŸ‡¦ğŸ‡ª",
    "code": "AE"
  },
  {
    "name": "Wales, United Kingdom",
    "dialCode": "+44",
    "flag": "ğŸ‡¬ğŸ‡§",
    "code": "GB"
  }
]
